NORAD_CAT_ID,OBJECT_NAME,OBJECT_TYPE,EPOCH,MEAN_MOTION,ECCENTRICITY,INCLINATION,RA_OF_ASC_NODE,ARG_OF_PERICENTER,MEAN_ANOMALY,BSTAR,MEAN_MOTION_DOT,MEAN_MOTION_DDOT,TLE_LINE0,TLE_LINE1,TLE_LINE2,SEMIMAJOR_AXIS,PERIOD,APOGEE,PERIGEE,DECAYED
53805.0,STARLINK-4763,PAYLOAD,2022-10-23 14:00:01,15.73251938,0.0002106999999999,53.216,56.6348,25.0691,256.3928,0.00021311,0.00029461,0.0,0 STARLINK-4763,1 53805U 22111AJ  22296.58334491  .00029461  00000-0  21311-3 0  9999,2 53805  53.2160  56.6348 0002107  25.0691 256.3928 15.73251938  1308,6727.746999999999,91.53,351.03,348.195,0.0
53805.0,STARLINK-4763,PAYLOAD,2022-10-23 22:00:00,15.73324123,0.0002193,53.2156,54.9852,20.5674,349.8864,-0.0012522,-0.00173726,0.0,0 STARLINK-4763,1 53805U 22111AJ  22296.91667824 -.00173726  00000-0 -12522-2 0  9994,2 53805  53.2156  54.9852 0002193  20.5674 349.8864 15.73324123  1304,6727.541,91.526,350.88199999999995,347.931,0.0
53805.0,STARLINK-4763,PAYLOAD,2022-10-24 06:00:00,15.73183402,0.0001936,53.2159,53.3338,22.4475,77.0265,-0.0011039,-0.00152674,0.0,0 STARLINK-4763,1 53805U 22111AJ  22297.25001157 -.00152674  00000-0 -11039-2 0  9994,2 53805  53.2159  53.3338 0001936  22.4475  77.0265 15.73183402  6711,6727.941999999999,91.534,351.11,348.505,0.0
53805.0,STARLINK-4763,PAYLOAD,2022-10-24 14:00:01,15.73024415,0.0002195999999999,53.2161,51.6863,18.7681,169.5491,0.0011405,0.0016134,0.0,0 STARLINK-4763,1 53805U 22111AJ  22297.58334491  .00161340  00000-0  11405-2 0  9995,2 53805  53.2161  51.6863 0002196  18.7681 169.5491 15.73024415  1300,6728.396,91.543,351.73800000000006,348.783,0.0
53805.0,STARLINK-4763,PAYLOAD,2022-10-24 22:00:00,15.73194351,0.0002263,53.2163,50.037,19.2307,257.8482,0.00011269,0.0001521999999999,0.0,0 STARLINK-4763,1 53805U 22111AJ  22297.91667824  .00015220  00000-0  11269-3 0  9995,2 53805  53.2163  50.0370 0002263  19.2307 257.8482 15.73194351  1302,6727.911,91.534,351.2990000000001,348.254,0.0
53805.0,STARLINK-4763,PAYLOAD,2022-10-25 06:00:00,15.73170045,0.0002117,53.2168,48.3857,22.0062,344.0105,0.0003275,0.00045535,0.0,0 STARLINK-4763,1 53805U 22111AJ  22298.25001157  .00045535  00000-0  32750-3 0  9994,2 53805  53.2168  48.3857 0002117  22.0062 344.0105 15.73170045  6877,6727.981,91.535,351.27,348.421,0.0
53805.0,STARLINK-4763,PAYLOAD,2022-10-25 14:00:01,15.73214891,0.0002458,53.2168,46.7384,21.2276,73.6852,-0.0002238,-0.00031936,0.0,0 STARLINK-4763,1 53805U 22111AJ  22298.58334491 -.00031936  00000-0 -22380-3 0  9990,2 53805  53.2168  46.7384 0002458  21.2276  73.6852 15.73214891  1305,6727.853,91.532,351.371,348.064,0.0
53805.0,STARLINK-4763,PAYLOAD,2022-10-25 22:00:01,15.73188023,0.0002536,53.2164,45.0885,22.5899,161.3288,2.7252e-06,-2.4e-06,0.0,0 STARLINK-4763,1 53805U 22111AJ  22298.91668981 -.00000240  00000-0  27252-5 0  9999,2 53805  53.2164  45.0885 0002536  22.5899 161.3288 15.73188023  6974,6727.929,91.534,351.501,348.088,0.0
53805.0,STARLINK-4763,PAYLOAD,2022-10-26 14:00:01,15.73185383,0.0002546999999999,53.2168,41.7904,21.0432,340.6625,0.00031213,0.00043388,0.0,0 STARLINK-4763,1 53805U 22111AJ  22299.58334491  .00043388  00000-0  31213-3 0  9998,2 53805  53.2168  41.7904 0002547  21.0432 340.6625 15.73185383  1307,6727.937,91.534,351.515,348.088,0.0
53805.0,STARLINK-4763,PAYLOAD,2022-10-26 22:00:00,15.73270136,0.000258,53.2169,40.1403,18.6433,71.9798,-0.00045663,-0.00064422,0.0,0 STARLINK-4763,1 53805U 22111AJ  22299.91667824 -.00064422  00000-0 -45663-3 0  9992,2 53805  53.2169  40.1403 0002580  18.6433  71.9798 15.73270136  1301,6727.695,91.529,351.296,347.824,0.0
53805.0,STARLINK-4763,PAYLOAD,2022-10-27 14:00:01,15.73187143,0.0002842,53.2172,36.8419,22.3588,246.2696,0.00044145,0.00061765,0.0,0 STARLINK-4763,1 53805U 22111AJ  22300.58335648  .00061765  00000-0  44145-3 0  9993,2 53805  53.2172  36.8419 0002842  22.3588 246.2696 15.73187143  7246,6727.932,91.534,351.709,347.885,0.0
53805.0,STARLINK-4763,PAYLOAD,2022-10-27 22:00:00,15.73291028,0.0002779,53.2168,35.1917,20.2228,337.274,-0.00041233,-0.00058329,0.0,0 STARLINK-4763,1 53805U 22111AJ  22300.91667824 -.00058329  00000-0 -41233-3 0  9993,2 53805  53.2168  35.1917 0002779  20.2228 337.2740 15.73291028  1303,6727.636,91.528,351.37,347.631,0.0
53805.0,STARLINK-4763,PAYLOAD,2022-10-28 08:00:01,15.73275496,0.0002648,53.2171,33.1291,22.4939,176.3133,-0.00064428,-0.00090387,0.0,0 STARLINK-4763,1 53805U 22111AJ  22301.33335648 -.00090387  00000-0 -64428-3 0  9997,2 53805  53.2171  33.1291 0002648  22.4939 176.3133 15.73275496  7369,6727.68,91.529,351.326,347.76300000000015,0.0
53805.0,STARLINK-4763,PAYLOAD,2022-10-28 14:00:01,15.73193794,0.000292,53.2169,31.8935,20.1223,155.4295,-3.6487e-05,-5.739999999999999e-05,0.0,0 STARLINK-4763,1 53805U 22111AJ  22301.58335648 -.00005740  00000-0 -36487-4 0  9998,2 53805  53.2169  31.8935 0002920  20.1223 155.4295 15.73193794  1305,6727.913000000001,91.534,351.742,347.81300000000016,0.0
53805.0,STARLINK-4763,PAYLOAD,2022-10-28 22:00:01,15.73238339,0.0002788,53.2169,30.2429,15.224,249.2434,-0.00068782,-0.00096237,0.0,0 STARLINK-4763,1 53805U 22111AJ  22301.91668981 -.00096237  00000-0 -68782-3 0  9997,2 53805  53.2169  30.2429 0002788  15.2240 249.2434 15.73238339  1304,6727.786,91.531,351.527,347.775,0.0
53805.0,STARLINK-4763,PAYLOAD,2022-10-29 08:00:01,15.73170528,0.0002748999999999,53.2173,28.1806,13.7517,91.8226,0.00034794,0.00048436,0.0,0 STARLINK-4763,1 53805U 22111AJ  22302.33334491  .00048436  00000-0  34794-3 0  9992,2 53805  53.2173  28.1806 0002749  13.7517  91.8226 15.73170528  7515,6727.979,91.535,351.694,347.995,0.0
53805.0,STARLINK-4763,PAYLOAD,2022-10-29 12:00:00,15.73199618,0.0002979,53.217,27.3569,13.6543,316.3818,0.0004826999999999,0.0006768,0.0,0 STARLINK-4763,1 53805U 22111AJ  22302.50001157  .00067680  00000-0  48270-3 0  9997,2 53805  53.2170  27.3569 0002979  13.6543 316.3818 15.73199618  1306,6727.896,91.533,351.766,347.75699999999995,0.0
53805.0,STARLINK-4763,PAYLOAD,2022-10-29 22:00:01,15.73280432,0.0003038,53.2168,25.2942,15.3793,155.9253,-0.0003509999999999,-0.00049776,0.0,0 STARLINK-4763,1 53805U 22111AJ  22302.91668981 -.00049776  00000-0 -35100-3 0  9992,2 53805  53.2168  25.2942 0003038  15.3793 155.9253 15.73280432  1303,6727.666,91.529,351.575,347.487,0.0
53805.0,STARLINK-4763,PAYLOAD,2022-10-30 00:00:00,15.73256071,0.0002971,53.2169,24.8813,16.1718,267.3268,-6.445100000000001e-05,-9.682e-05,0.0,0 STARLINK-4763,1 53805U 22111AJ  22303.00001157 -.00009682  00000-0 -64451-4 0  9993,2 53805  53.2169  24.8813 0002971  16.1718 267.3268 15.73256071  7624,6727.735,91.53,351.599,347.602,0.0
53805.0,STARLINK-4763,PAYLOAD,2022-10-30 14:00:01,15.73185851,0.0003171999999999,53.2168,21.9963,16.5874,332.6145,-0.00066593,-0.00093029,0.0,0 STARLINK-4763,1 53805U 22111AJ  22303.58334491 -.00093029  00000-0 -66593-3 0  9992,2 53805  53.2168  21.9963 0003172  16.5874 332.6145 15.73185851  1304,6727.936,91.534,351.935,347.666,0.0
53805.0,STARLINK-4763,PAYLOAD,2022-10-30 22:00:01,15.72813494,0.0003293,53.2175,20.3485,20.9165,57.2933,0.0037457999999999,0.00551944,0.0,0 STARLINK-4763,1 53805U 22111AJ  22303.91668981  .00551944  00000-0  37458-2 0  9993,2 53805  53.2175  20.3485 0003293  20.9165  57.2933 15.72813494  1305,6728.996999999999,91.556,353.07800000000015,348.646,0.0
53805.0,STARLINK-4763,PAYLOAD,2022-10-31 14:00:01,15.73194046,0.0003393999999999,53.2172,17.0478,13.0241,242.8282,-5.472399999999999e-05,-8.297e-05,0.0,0 STARLINK-4763,1 53805U 22111AJ  22304.58334491 -.00008297  00000-0 -54724-4 0  9990,2 53805  53.2172  17.0478 0003394  13.0241 242.8282 15.73194046  1302,6727.9119999999975,91.534,352.061,347.494,0.0
53805.0,STARLINK-4763,PAYLOAD,2022-10-31 22:00:01,15.73222566,0.0003212,53.217,15.3967,9.1172,335.7168,-0.00040429,-0.00057051,0.0,0 STARLINK-4763,1 53805U 22111AJ  22304.91668981 -.00057051  00000-0 -40429-3 0  9999,2 53805  53.2170  15.3967 0003212   9.1172 335.7168 15.73222566  7920,6727.831,91.532,351.857,347.535,0.0
53805.0,STARLINK-4763,PAYLOAD,2022-11-01 06:00:00,15.73224601,0.0003161,53.217,13.747,8.0858,65.6097,5.6287e-05,7.293e-05,0.0,0 STARLINK-4763,1 53805U 22111AJ  22305.25001157  .00007293  00000-0  56287-4 0  9994,2 53805  53.2170  13.7470 0003161   8.0858  65.6097 15.73224601  7970,6727.825,91.532,351.81699999999995,347.56300000000016,0.0
53805.0,STARLINK-4763,PAYLOAD,2022-11-01 14:00:01,15.73161403,0.0003466,53.217,12.0994,6.0596,156.5986,0.00075214,0.00106127,0.0,0 STARLINK-4763,1 53805U 22111AJ  22305.58334491  .00106127  00000-0  75214-3 0  9996,2 53805  53.2170  12.0994 0003466   6.0596 156.5986 15.73161403  1306,6728.005,91.535,352.202,347.538,0.0
53805.0,STARLINK-4763,PAYLOAD,2022-11-01 22:00:00,15.73257618,0.0003362,53.2171,10.4482,7.9206,243.6645,-0.00061753,-0.00086646,0.0,0 STARLINK-4763,1 53805U 22111AJ  22305.91667824 -.00086646  00000-0 -61753-3 0  9990,2 53805  53.2171  10.4482 0003362   7.9206 243.6645 15.73257618  8080,6727.731,91.53,351.858,347.334,0.0
53805.0,STARLINK-4763,PAYLOAD,2022-11-02 14:00:01,15.73115505,0.0003745,53.2173,7.1517,13.3511,56.1182,0.00088186,0.00124572,0.0,0 STARLINK-4763,1 53805U 22111AJ  22306.58334491  .00124572  00000-0  88186-3 0  9993,2 53805  53.2173   7.1517 0003745  13.3511  56.1182 15.73115505  8181,6728.136,91.538,352.521,347.481,0.0
53805.0,STARLINK-4763,PAYLOAD,2022-11-02 22:00:00,15.73213955,0.0003587,53.2173,5.4997,13.3408,144.9828,-0.00031177,-0.00044192,0.0,0 STARLINK-4763,1 53805U 22111AJ  22306.91667824 -.00044192  00000-0 -31177-3 0  9998,2 53805  53.2173   5.4997 0003587  13.3408 144.9828 15.73213955  8230,6727.855,91.532,352.134,347.307,0.0
53805.0,STARLINK-4763,PAYLOAD,2022-11-03 08:00:01,15.7322179,0.0003644,53.2171,3.4387,12.8136,346.6835,0.00041263,0.00057757,0.0,0 STARLINK-4763,1 53805U 22111AJ  22307.33334491  .00057757  00000-0  41263-3 0  9992,2 53805  53.2171   3.4387 0003644  12.8136 346.6835 15.73221790  8308,6727.833000000001,91.532,352.15,347.246,0.0
